[{"OBJECT_NAME":"STARLINK-4392","OBJECT_ID":"2022-099AA","EPOCH":"2026-03-09T21:33:28.957248","MEAN_MOTION":15.01259695,"ECCENTRICITY":0.00025019,"INCLINATION":97.6024,"RA_OF_ASC_NODE":190.3939,"ARG_OF_PERICENTER":177.021,"MEAN_ANOMALY":183.103,"EPHEMERIS_TYPE":0,"CLASSIFICATION_TYPE":"U","NORAD_CAT_ID":53489,"ELEMENT_SET_NO":999,"REV_AT_EPOCH":19601,"BSTAR":6.3338937e-5,"MEAN_MOTION_DOT":7.55e-6,"MEAN_MOTION_DDOT":0},{"OBJECT_NAME":"PEGASUS DEB","OBJECT_ID":"1994-029BC","EPOCH":"2026-03-09T22:00:19.479168","MEAN_MOTION":15.02669201,"ECCENTRICITY":0.00619411,"INCLINATION":81.9229,"RA_OF_ASC_NODE":10.1044,"ARG_OF_PERICENTER":202.7728,"MEAN_ANOMALY":222.9696,"EPHEMERIS_TYPE":0,"CLASSIFICATION_TYPE":"U","NORAD_CAT_ID":24007,"ELEMENT_SET_NO":999,"REV_AT_EPOCH":60998,"BSTAR":0.00034526552,"MEAN_MOTION_DOT":4.826e-5,"MEAN_MOTION_DDOT":0}]
